{
  "type": "FeatureCollection",
  "features": [
    {
      "type": "Feature",
      "properties": {
        "norad_id": 66536,
        "name": "STARLINK-35640",
        "group": "last-30-days",
        "lat": 41.80509503113005,
        "lon": 130.5698761758597,
        "alt_km": 408.9760196578809,
        "timestamp": "2025-12-17T19:34:06.799676+00:00",
        "meta_object_name": "STARLINK-35640",
        "meta_object_id": "2025-265W",
        "meta_epoch": "2025-12-16T12:12:48.773376",
        "meta_mean_motion": 15.50602173,
        "meta_eccentricity": 0.00017718,
        "meta_inclination": 43.0004,
        "meta_ra_of_asc_node": 31.8836,
        "meta_arg_of_pericenter": 262.7593,
        "meta_mean_anomaly": 97.3066,
        "meta_ephemeris_type": 0,
        "meta_classification_type": "U",
        "meta_norad_cat_id": 66536,
        "meta_element_set_no": 999,
        "meta_rev_at_epoch": 434,
        "meta_bstar": 0.0011261208,
        "meta_mean_motion_dot": 0.0006634,
        "meta_mean_motion_ddot": 0,
        "tle_line1": "1 66536U 25265W   25350.50889784  .00066340  00000+0  11261-2 0  9991",
        "tle_line2": "2 66536  43.0004  31.8836 0001771 262.7593  97.3066 15.50602173  4340"
      },
      "geometry": {
        "type": "Point",
        "coordinates": [
          130.5698761758597,
          41.80509503113005
        ]
      }
    },
    {
      "type": "Feature",
      "properties": {
        "norad_id": 66537,
        "name": "STARLINK-35582",
        "group": "last-30-days",
        "lat": 41.48870874757918,
        "lon": 132.6114749721083,
        "alt_km": 409.05424109415526,
        "timestamp": "2025-12-17T19:34:06.799686+00:00",
        "meta_object_name": "STARLINK-35582",
        "meta_object_id": "2025-265X",
        "meta_epoch": "2025-12-17T03:39:53.864064",
        "meta_mean_motion": 15.50595338,
        "meta_eccentricity": 0.00015129,
        "meta_inclination": 43.0011,
        "meta_ra_of_asc_node": 28.1144,
        "meta_arg_of_pericenter": 268.1214,
        "meta_mean_anomaly": 91.9473,
        "meta_ephemeris_type": 0,
        "meta_classification_type": "U",
        "meta_norad_cat_id": 66537,
        "meta_element_set_no": 999,
        "meta_rev_at_epoch": 444,
        "meta_bstar": 0.0014528364,
        "meta_mean_motion_dot": 0.0008588,
        "meta_mean_motion_ddot": 0,
        "tle_line1": "1 66537U 25265X   25351.15270676  .00085880  00000+0  14528-2 0  9997",
        "tle_line2": "2 66537  43.0011  28.1144 0001512 268.1214  91.9473 15.50595338  4440"
      },
      "geometry": {
        "type": "Point",
        "coordinates": [
          132.6114749721083,
          41.48870874757918
        ]
      }
    },
    {
      "type": "Feature",
      "properties": {
        "norad_id": 66538,
        "name": "STARLINK-35577",
        "group": "last-30-days",
        "lat": 41.051753984740735,
        "lon": 135.07449091144767,
        "alt_km": 409.01785113698406,
        "timestamp": "2025-12-17T19:34:06.799699+00:00",
        "meta_object_name": "STARLINK-35577",
        "meta_object_id": "2025-265Y",
        "meta_epoch": "2025-12-17T03:39:24.183072",
        "meta_mean_motion": 15.50610909,
        "meta_eccentricity": 0.00014966,
        "meta_inclination": 43.0006,
        "meta_ra_of_asc_node": 28.1088,
        "meta_arg_of_pericenter": 245.6332,
        "meta_mean_anomaly": 114.4372,
        "meta_ephemeris_type": 0,
        "meta_classification_type": "U",
        "meta_norad_cat_id": 66538,
        "meta_element_set_no": 999,
        "meta_rev_at_epoch": 444,
        "meta_bstar": 0.00094181895,
        "meta_mean_motion_dot": 0.00055365,
        "meta_mean_motion_ddot": 0,
        "tle_line1": "1 66538U 25265Y   25351.15236323  .00055365  00000+0  94182-3 0  9999",
        "tle_line2": "2 66538  43.0006  28.1088 0001496 245.6332 114.4372 15.50610909  4445"
      },
      "geometry": {
        "type": "Point",
        "coordinates": [
          135.07449091144767,
          41.051753984740735
        ]
      }
    },
    {
      "type": "Feature",
      "properties": {
        "norad_id": 66539,
        "name": "STARLINK-35697",
        "group": "last-30-days",
        "lat": 40.50493693831189,
        "lon": 137.7768013637862,
        "alt_km": 406.55878635791487,
        "timestamp": "2025-12-17T19:34:06.799710+00:00",
        "meta_object_name": "STARLINK-35697",
        "meta_object_id": "2025-265Z",
        "meta_epoch": "2025-12-17T03:38:53.810016",
        "meta_mean_motion": 15.50646758,
        "meta_eccentricity": 0.00026959,
        "meta_inclination": 43,
        "meta_ra_of_asc_node": 28.1074,
        "meta_arg_of_pericenter": 76.2483,
        "meta_mean_anomaly": 283.8677,
        "meta_ephemeris_type": 0,
        "meta_classification_type": "U",
        "meta_norad_cat_id": 66539,
        "meta_element_set_no": 999,
        "meta_rev_at_epoch": 444,
        "meta_bstar": 0.00091549322,
        "meta_mean_motion_dot": 0.0005387,
        "meta_mean_motion_ddot": 0,
        "tle_line1": "1 66539U 25265Z   25351.15201169  .00053870  00000+0  91549-3 0  9993",
        "tle_line2": "2 66539  43.0000  28.1074 0002695  76.2483 283.8677 15.50646758  4442"
      },
      "geometry": {
        "type": "Point",
        "coordinates": [
          137.7768013637862,
          40.50493693831189
        ]
      }
    },
    {
      "type": "Feature",
      "properties": {
        "norad_id": 66540,
        "name": "STARLINK-35818",
        "group": "last-30-days",
        "lat": 39.99174674406827,
        "lon": 140.03455150930174,
        "alt_km": 406.9537634533617,
        "timestamp": "2025-12-17T19:34:06.799721+00:00",
        "meta_object_name": "STARLINK-35818",
        "meta_object_id": "2025-265AA",
        "meta_epoch": "2025-12-17T03:38:25.281600",
        "meta_mean_motion": 15.50632445,
        "meta_eccentricity": 0.00038131,
        "meta_inclination": 42.9995,
        "meta_ra_of_asc_node": 28.105,
        "meta_arg_of_pericenter": 48.9225,
        "meta_mean_anomaly": 311.1964,
        "meta_ephemeris_type": 0,
        "meta_classification_type": "U",
        "meta_norad_cat_id": 66540,
        "meta_element_set_no": 999,
        "meta_rev_at_epoch": 444,
        "meta_bstar": 0.00051079701,
        "meta_mean_motion_dot": 0.00029801,
        "meta_mean_motion_ddot": 0,
        "tle_line1": "1 66540U 25265AA  25351.15168150  .00029801  00000+0  51080-3 0  9990",
        "tle_line2": "2 66540  42.9995  28.1050 0003813  48.9225 311.1964 15.50632445  4444"
      },
      "geometry": {
        "type": "Point",
        "coordinates": [
          140.03455150930174,
          39.99174674406827
        ]
      }
    },
    {
      "type": "Feature",
      "properties": {
        "norad_id": 66541,
        "name": "STARLINK-35796",
        "group": "last-30-days",
        "lat": -21.433193022439937,
        "lon": -0.3450634076368454,
        "alt_km": 445.4801306698473,
        "timestamp": "2025-12-17T19:34:06.799731+00:00",
        "meta_object_name": "STARLINK-35796",
        "meta_object_id": "2025-265AB",
        "meta_epoch": "2025-12-17T08:00:04.999680",
        "meta_mean_motion": 15.40688092,
        "meta_eccentricity": 0.00012473,
        "meta_inclination": 43.001,
        "meta_ra_of_asc_node": 27.3469,
        "meta_arg_of_pericenter": 284.2338,
        "meta_mean_anomaly": 247.0273,
        "meta_ephemeris_type": 0,
        "meta_classification_type": "U",
        "meta_norad_cat_id": 66541,
        "meta_element_set_no": 999,
        "meta_rev_at_epoch": 573,
        "meta_bstar": 0.00021497335,
        "meta_mean_motion_dot": 8.683e-05,
        "meta_mean_motion_ddot": 0,
        "tle_line1": "1 66541U 25265AB  25351.33339120  .00008683  00000+0  21497-3 0  9992",
        "tle_line2": "2 66541  43.0010  27.3469 0001247 284.2338 247.0273 15.40688092  5730"
      },
      "geometry": {
        "type": "Point",
        "coordinates": [
          -0.3450634076368454,
          -21.433193022439937
        ]
      }
    },
    {
      "type": "Feature",
      "properties": {
        "norad_id": 66542,
        "name": "STARLINK-35833",
        "group": "last-30-days",
        "lat": 11.724680387329075,
        "lon": 37.31689378009996,
        "alt_km": 442.1573056823163,
        "timestamp": "2025-12-17T19:34:06.799742+00:00",
        "meta_object_name": "STARLINK-35833",
        "meta_object_id": "2025-265AC",
        "meta_epoch": "2025-12-17T08:00:04.999680",
        "meta_mean_motion": 15.40675979,
        "meta_eccentricity": 7.925e-05,
        "meta_inclination": 43.0007,
        "meta_ra_of_asc_node": 27.2265,
        "meta_arg_of_pericenter": 287.7802,
        "meta_mean_anomaly": 293.2546,
        "meta_ephemeris_type": 0,
        "meta_classification_type": "U",
        "meta_norad_cat_id": 66542,
        "meta_element_set_no": 999,
        "meta_rev_at_epoch": 573,
        "meta_bstar": 0.00037181138,
        "meta_mean_motion_dot": 0.00015247,
        "meta_mean_motion_ddot": 0,
        "tle_line1": "1 66542U 25265AC  25351.33339120  .00015247  00000+0  37181-3 0  9994",
        "tle_line2": "2 66542  43.0007  27.2265 0000792 287.7802 293.2546 15.40675979  5734"
      },
      "geometry": {
        "type": "Point",
        "coordinates": [
          37.31689378009996,
          11.724680387329075
        ]
      }
    }
  ]
}